MALLIGYONG-1            
1 58400U 23179A   24255.58852819  .00009841  00000+0  45129-3 0  9998
2 58400  97.3890 140.9770 0010010 123.9862 236.2326 15.20600853 44862
